{
  "type": "FeatureCollection",
  "features": [
    {
      "type": "Feature",
      "properties": {
        "norad_id": 41581,
        "name": "INTELSAT 31 (IS-31)",
        "group": "intelsat",
        "lat": -0.0199435375672939,
        "lon": -108.26476868601944,
        "alt_km": 35782.04961314063,
        "timestamp": "2025-12-23T16:57:12.012808+00:00",
        "meta_object_name": "INTELSAT 31 (IS-31)",
        "meta_object_id": "2016-035A",
        "meta_epoch": "2025-12-23T04:04:06.858048",
        "meta_mean_motion": 1.00267678,
        "meta_eccentricity": 0.00017894,
        "meta_inclination": 0.03,
        "meta_ra_of_asc_node": 262.009,
        "meta_arg_of_pericenter": 303.3765,
        "meta_mean_anomaly": 212.5489,
        "meta_ephemeris_type": 0,
        "meta_classification_type": "U",
        "meta_norad_cat_id": 41581,
        "meta_element_set_no": 999,
        "meta_rev_at_epoch": 3491,
        "meta_bstar": 0,
        "meta_mean_motion_dot": -1.29e-06,
        "meta_mean_motion_ddot": 0,
        "tle_line1": "1 41581U 16035A   25357.16952382 -.00000129  00000+0  00000+0 0  9993",
        "tle_line2": "2 41581   0.0300 262.0090 0001789 303.3765 212.5489  1.00267678 34910"
      },
      "geometry": {
        "type": "Point",
        "coordinates": [
          -108.26476868601944,
          -0.0199435375672939
        ]
      }
    },
    {
      "type": "Feature",
      "properties": {
        "norad_id": 41747,
        "name": "INTELSAT 36 (IS-36)",
        "group": "intelsat",
        "lat": 0.026644822302613152,
        "lon": 55.29220967923308,
        "alt_km": 35786.104871095835,
        "timestamp": "2025-12-23T16:57:12.012820+00:00",
        "meta_object_name": "INTELSAT 36 (IS-36)",
        "meta_object_id": "2016-053A",
        "meta_epoch": "2025-12-22T13:29:30.047712",
        "meta_mean_motion": 1.0027117,
        "meta_eccentricity": 0.00010206,
        "meta_inclination": 0.0105,
        "meta_ra_of_asc_node": 0.216,
        "meta_arg_of_pericenter": 326.742,
        "meta_mean_anomaly": 35.2784,
        "meta_ephemeris_type": 0,
        "meta_classification_type": "U",
        "meta_norad_cat_id": 41747,
        "meta_element_set_no": 999,
        "meta_rev_at_epoch": 3417,
        "meta_bstar": 0,
        "meta_mean_motion_dot": -3e-08,
        "meta_mean_motion_ddot": 0,
        "tle_line1": "1 41747U 16053A   25356.56215333 -.00000003  00000+0  00000+0 0  9999",
        "tle_line2": "2 41747   0.0105   0.2160 0001020 326.7420  35.2784  1.00271170 34170"
      },
      "geometry": {
        "type": "Point",
        "coordinates": [
          55.29220967923308,
          0.026644822302613152
        ]
      }
    },
    {
      "type": "Feature",
      "properties": {
        "norad_id": 41945,
        "name": "INTELSAT 32E (IS-32E)",
        "group": "intelsat",
        "lat": -0.036148342102255246,
        "lon": -56.39024510579214,
        "alt_km": 35786.50018318105,
        "timestamp": "2025-12-23T16:57:12.012834+00:00",
        "meta_object_name": "INTELSAT 32E (IS-32E)",
        "meta_object_id": "2017-007B",
        "meta_epoch": "2025-12-23T04:21:59.220288",
        "meta_mean_motion": 1.00271191,
        "meta_eccentricity": 5.089e-05,
        "meta_inclination": 0.0236,
        "meta_ra_of_asc_node": 68.7803,
        "meta_arg_of_pericenter": 329.6845,
        "meta_mean_anomaly": 75.8383,
        "meta_ephemeris_type": 0,
        "meta_classification_type": "U",
        "meta_norad_cat_id": 41945,
        "meta_element_set_no": 999,
        "meta_rev_at_epoch": 3246,
        "meta_bstar": 0,
        "meta_mean_motion_dot": -2.48e-06,
        "meta_mean_motion_ddot": 0,
        "tle_line1": "1 41945U 17007B   25357.18193542 -.00000248  00000+0  00000+0 0  9996",
        "tle_line2": "2 41945   0.0236  68.7803 0000508 329.6845  75.8383  1.00271191 32469"
      },
      "geometry": {
        "type": "Point",
        "coordinates": [
          -56.39024510579214,
          -0.036148342102255246
        ]
      }
    },
    {
      "type": "Feature",
      "properties": {
        "norad_id": 42818,
        "name": "INTELSAT 35E (IS-35E)",
        "group": "intelsat",
        "lat": -0.04117436097389471,
        "lon": -47.72087137185295,
        "alt_km": 35780.38523801069,
        "timestamp": "2025-12-23T16:57:12.012845+00:00",
        "meta_object_name": "INTELSAT 35E (IS-35E)",
        "meta_object_id": "2017-041A",
        "meta_epoch": "2025-12-22T11:17:18.904416",
        "meta_mean_motion": 1.00267679,
        "meta_eccentricity": 0.00019503,
        "meta_inclination": 0.0219,
        "meta_ra_of_asc_node": 17.0294,
        "meta_arg_of_pericenter": 262.6673,
        "meta_mean_anomaly": 306.4061,
        "meta_ephemeris_type": 0,
        "meta_classification_type": "U",
        "meta_norad_cat_id": 42818,
        "meta_element_set_no": 999,
        "meta_rev_at_epoch": 3104,
        "meta_bstar": 0,
        "meta_mean_motion_dot": 0,
        "meta_mean_motion_ddot": 0,
        "tle_line1": "1 42818U 17041A   25356.47035769  .00000000  00000+0  00000+0 0  9996",
        "tle_line2": "2 42818   0.0219  17.0294 0001950 262.6673 306.4061  1.00267679 31043"
      },
      "geometry": {
        "type": "Point",
        "coordinates": [
          -47.72087137185295,
          -0.04117436097389471
        ]
      }
    },
    {
      "type": "Feature",
      "properties": {
        "norad_id": 42950,
        "name": "INTELSAT 37E (IS-37E)",
        "group": "intelsat",
        "lat": -0.029515069738318408,
        "lon": -31.18560817193045,
        "alt_km": 35781.488139267545,
        "timestamp": "2025-12-23T16:57:12.012857+00:00",
        "meta_object_name": "INTELSAT 37E (IS-37E)",
        "meta_object_id": "2017-059A",
        "meta_epoch": "2025-12-23T02:46:30.914976",
        "meta_mean_motion": 1.00270162,
        "meta_eccentricity": 0.00029864,
        "meta_inclination": 0.0204,
        "meta_ra_of_asc_node": 10.7633,
        "meta_arg_of_pericenter": 251.5591,
        "meta_mean_anomaly": 213.217,
        "meta_ephemeris_type": 0,
        "meta_classification_type": "U",
        "meta_norad_cat_id": 42950,
        "meta_element_set_no": 999,
        "meta_rev_at_epoch": 3030,
        "meta_bstar": 0,
        "meta_mean_motion_dot": 0,
        "meta_mean_motion_ddot": 0,
        "tle_line1": "1 42950U 17059A   25357.11563559  .00000000  00000+0  00000+0 0  9997",
        "tle_line2": "2 42950   0.0204  10.7633 0002986 251.5591 213.2170  1.00270162 30302"
      },
      "geometry": {
        "type": "Point",
        "coordinates": [
          -31.18560817193045,
          -0.029515069738318408
        ]
      }
    },
    {
      "type": "Feature",
      "properties": {
        "norad_id": 43632,
        "name": "AZERSPACE 2 (IS-38)",
        "group": "intelsat",
        "lat": 0.0006720325303884535,
        "lon": 31.90561520716711,
        "alt_km": 35788.9439551218,
        "timestamp": "2025-12-23T16:57:12.012870+00:00",
        "meta_object_name": "AZERSPACE 2 (IS-38)",
        "meta_object_id": "2018-074A",
        "meta_epoch": "2025-12-22T11:40:01.728768",
        "meta_mean_motion": 1.00269966,
        "meta_eccentricity": 0.00012119,
        "meta_inclination": 0.0009,
        "meta_ra_of_asc_node": 54.2649,
        "meta_arg_of_pericenter": 218.3873,
        "meta_mean_anomaly": 38.7587,
        "meta_ephemeris_type": 0,
        "meta_classification_type": "U",
        "meta_norad_cat_id": 43632,
        "meta_element_set_no": 999,
        "meta_rev_at_epoch": 2667,
        "meta_bstar": 0,
        "meta_mean_motion_dot": 1.58e-06,
        "meta_mean_motion_ddot": 0,
        "tle_line1": "1 43632U 18074A   25356.48613112  .00000158  00000+0  00000+0 0  9997",
        "tle_line2": "2 43632   0.0009  54.2649 0001211 218.3873  38.7587  1.00269966 26674"
      },
      "geometry": {
        "type": "Point",
        "coordinates": [
          31.90561520716711,
          0.0006720325303884535
        ]
      }
    },
    {
      "type": "Feature",
      "properties": {
        "norad_id": 43633,
        "name": "HORIZONS-3E",
        "group": "intelsat",
        "lat": -0.007608285767032531,
        "lon": 155.76769574947977,
        "alt_km": 35788.718372353986,
        "timestamp": "2025-12-23T16:57:12.012882+00:00",
        "meta_object_name": "HORIZONS-3E",
        "meta_object_id": "2018-074B",
        "meta_epoch": "2025-12-23T03:39:48.312000",
        "meta_mean_motion": 1.00269863,
        "meta_eccentricity": 5.63e-05,
        "meta_inclination": 0.0111,
        "meta_ra_of_asc_node": 213.5125,
        "meta_arg_of_pericenter": 95.1186,
        "meta_mean_anomaly": 7.2553,
        "meta_ephemeris_type": 0,
        "meta_classification_type": "U",
        "meta_norad_cat_id": 43633,
        "meta_element_set_no": 999,
        "meta_rev_at_epoch": 2657,
        "meta_bstar": 0,
        "meta_mean_motion_dot": 0,
        "meta_mean_motion_ddot": 0,
        "tle_line1": "1 43633U 18074B   25357.15264250  .00000000  00000+0  00000+0 0  9994",
        "tle_line2": "2 43633   0.0111 213.5125 0000563  95.1186   7.2553  1.00269863 26574"
      },
      "geometry": {
        "type": "Point",
        "coordinates": [
          155.76769574947977,
          -0.007608285767032531
        ]
      }
    }
  ]
}